{
    "links": {
        "self": "http://www.neowsapp.com/rest/v1/neo/3727265?api_key=iIulBulltgU6a56xZRHN4H3l9WmuAYTsLGpBGhQ2"
    },
    "id": "3727265",
    "neo_reference_id": "3727265",
    "name": "(2015 RZ36)",
    "designation": "2015 RZ36",
    "nasa_jpl_url": "http://ssd.jpl.nasa.gov/sbdb.cgi?sstr=3727265",
    "absolute_magnitude_h": 26.1,
    "estimated_diameter": {
        "kilometers": {
            "estimated_diameter_min": 0.0160160338,
            "estimated_diameter_max": 0.0358129403
        },
        "meters": {
            "estimated_diameter_min": 16.0160337979,
            "estimated_diameter_max": 35.8129403019
        },
        "miles": {
            "estimated_diameter_min": 0.0099518989,
            "estimated_diameter_max": 0.0222531225
        },
        "feet": {
            "estimated_diameter_min": 52.5460443254,
            "estimated_diameter_max": 117.4965270602
        }
    },
    "is_potentially_hazardous_asteroid": false,
    "close_approach_data": [
        {
            "close_approach_date": "2012-06-27",
            "close_approach_date_full": "2012-Jun-27 14:16",
            "epoch_date_close_approach": 1340806560000,
            "relative_velocity": {
                "kilometers_per_second": "20.0159624992",
                "kilometers_per_hour": "72057.4649971297",
                "miles_per_hour": "44773.7065144665"
            },
            "miss_distance": {
                "astronomical": "0.4922158748",
                "lunar": "191.4719752972",
                "kilometers": "73634446.450266676",
                "miles": "45754323.3680290888"
            },
            "orbiting_body": "Earth"
        },
        {
            "close_approach_date": "2015-09-02",
            "close_approach_date_full": "2015-Sep-02 13:24",
            "epoch_date_close_approach": 1441200240000,
            "relative_velocity": {
                "kilometers_per_second": "6.5495003919",
                "kilometers_per_hour": "23578.2014109319",
                "miles_per_hour": "14650.5774266982"
            },
            "miss_distance": {
                "astronomical": "0.0623846429",
                "lunar": "24.2676260881",
                "kilometers": "9332609.698550623",
                "miles": "5799014.7627916774"
            },
            "orbiting_body": "Earth"
        }
    ],
    "orbital_data": {
        "orbit_id": "10",
        "orbit_determination_date": "2017-04-06 08:32:03",
        "first_observation_date": "2015-09-09",
        "last_observation_date": "2015-10-01",
        "data_arc_in_days": 22,
        "observations_used": 26,
        "orbit_uncertainty": "8",
        "minimum_orbit_intersection": ".048607",
        "jupiter_tisserand_invariant": "3.555",
        "epoch_osculation": "2457277.5",
        "eccentricity": ".5009319045066248",
        "semi_major_axis": "2.124393906186068",
        "inclination": ".4532020815298148",
        "ascending_node_longitude": "329.7074493490014",
        "orbital_period": "1130.969771643189",
        "perihelion_distance": "1.060217220838013",
        "perihelion_argument": "359.7648593184361",
        "aphelion_distance": "3.188570591534123",
        "perihelion_time": "2457260.388672962186",
        "mean_anomaly": "5.446721820569127",
        "mean_motion": ".3183108947969096",
        "equinox": "J2000",
        "orbit_class": {
            "orbit_class_type": "AMO",
            "orbit_class_description": "Near-Earth asteroid orbits similar to that of 1221 Amor",
            "orbit_class_range": "1.017 AU < q (perihelion) < 1.3 AU"
        }
    },
    "is_sentry_object": false
}